NORAD_CAT_ID,OBJECT_NAME,OBJECT_TYPE,EPOCH,MEAN_MOTION,ECCENTRICITY,INCLINATION,RA_OF_ASC_NODE,ARG_OF_PERICENTER,MEAN_ANOMALY,BSTAR,MEAN_MOTION_DOT,MEAN_MOTION_DDOT,TLE_LINE0,TLE_LINE1,TLE_LINE2,SEMIMAJOR_AXIS,PERIOD,APOGEE,PERIGEE,DECAYED
52684.0,STARLINK-4014,PAYLOAD,2024-03-28 17:31:17,15.08894855,0.0002607,53.2159,95.7383,68.6696,291.4574,0.00046217,7.086e-05,0.0,0 STARLINK-4014,1 52684U 22053AE  24088.73006767  .00007086  00000-0  46217-3 0  9999,2 52684  53.2159  95.7383 0002607  68.6696 291.4574 15.08894855103800,6917.713,95.434,541.381,537.774,0.0
52684.0,STARLINK-4014,PAYLOAD,2024-03-29 04:39:02,15.08828711,0.000132,53.216,93.6565,73.7396,286.3741,-0.00030404,-5.122e-05,0.0,0 STARLINK-4014,1 52684U 22053AE  24089.19377363 -.00005122  00000-0 -30404-3 0  9995,2 52684  53.2160  93.6565 0001320  73.7396 286.3741 15.08828711103498,6917.915,95.438,540.693,538.867,0.0
52684.0,STARLINK-4014,PAYLOAD,2024-03-29 09:25:11,15.08832832,0.0001406,53.2158,92.7665,74.2024,285.9123,-0.00034255,-5.734e-05,0.0,0 STARLINK-4014,1 52684U 22053AE  24089.39249157 -.00005734  00000-0 -34255-3 0  9993,2 52684  53.2158  92.7665 0001406  74.2024 285.9123 15.08832832103909,6917.902,95.438,540.74,538.795,0.0
52684.0,STARLINK-4014,PAYLOAD,2024-03-29 17:22:06,15.08841471,0.0001482,53.2152,91.281,78.7026,281.4133,-0.00020993,-3.628e-05,0.0,0 STARLINK-4014,1 52684U 22053AE  24089.72368866 -.00003628  00000-0 -20993-3 0  9993,2 52684  53.2152  91.2810 0001482  78.7026 281.4133 15.08841471103578,6917.876,95.437,540.766,538.716,0.0
52684.0,STARLINK-4014,PAYLOAD,2024-03-30 04:29:49,15.08832545,0.0001375,53.2159,89.1991,76.6986,283.416,-0.0001047,-1.953e-05,0.0,0 STARLINK-4014,1 52684U 22053AE  24090.18737502 -.00001953  00000-0 -10470-3 0  9990,2 52684  53.2159  89.1991 0001375  76.6986 283.4160 15.08832545103646,6917.903,95.438,540.719,538.817,0.0
52684.0,STARLINK-4014,PAYLOAD,2024-03-30 07:40:35,15.08835987,0.0001293,53.2152,88.6046,74.9003,285.2132,-0.00025675,-4.371e-05,0.0,0 STARLINK-4014,1 52684U 22053AE  24090.31985056 -.00004371  00000-0 -25675-3 0  9994,2 52684  53.2152  88.6046 0001293  74.9003 285.2132 15.08835987104041,6917.893,95.438,540.652,538.863,0.0
52684.0,STARLINK-4014,PAYLOAD,2024-03-30 17:12:54,15.08839278,0.0001326,53.2156,86.8205,73.0829,287.0308,0.0001014,1.326e-05,0.0,0 STARLINK-4014,1 52684U 22053AE  24090.71729317  .00001326  00000-0  10140-3 0  9990,2 52684  53.2156  86.8205 0001326  73.0829 287.0308 15.08839278103721,6917.883,95.438,540.665,538.83,0.0
52684.0,STARLINK-4014,PAYLOAD,2024-03-31 04:20:37,15.08832451,0.000138,53.2156,84.7386,74.9209,285.1936,0.00042423,6.469e-05,0.0,0 STARLINK-4014,1 52684U 22053AE  24091.18098425  .00006469  00000-0  42423-3 0  9993,2 52684  53.2156  84.7386 0001380  74.9209 285.1936 15.08832451103799,6917.903,95.438,540.723,538.814,0.0
52684.0,STARLINK-4014,PAYLOAD,2024-03-31 09:06:46,15.08842401,0.0001467,53.2174,83.8432,92.4971,267.6189,0.00059194,9.146e-05,0.0,0 STARLINK-4014,1 52684U 22053AE  24091.37970234  .00009146  00000-0  59194-3 0  9999,2 52684  53.2174  83.8432 0001467  92.4971 267.6189 15.08842401104206,6917.873,95.437,540.753,538.723,0.0
52684.0,STARLINK-4014,PAYLOAD,2024-03-31 17:03:41,15.08842001,0.0001495,53.2177,82.3566,92.4024,267.7139,0.00044085,6.735e-05,0.0,0 STARLINK-4014,1 52684U 22053AE  24091.71090236  .00006735  00000-0  44085-3 0  9996,2 52684  53.2177  82.3566 0001495  92.4024 267.7139 15.08842001104258,6917.874,95.437,540.773,538.705,0.0
52684.0,STARLINK-4014,PAYLOAD,2024-04-01 05:46:48,15.08823406,0.0001365,53.2165,79.9807,86.7618,273.353,-5.9866e-06,-3.83e-06,0.0,0 STARLINK-4014,1 52684U 22053AE  24092.24083345 -.00000383  00000-0 -59866-5 0  9998,2 52684  53.2165  79.9807 0001365  86.7618 273.3530 15.08823406103958,6917.931,95.439,540.74,538.852,0.0
52684.0,STARLINK-4014,PAYLOAD,2024-04-01 08:57:34,15.08823842,0.0001511,53.2174,79.3837,94.6081,265.5084,2.2336e-05,6.7e-07,0.0,0 STARLINK-4014,1 52684U 22053AE  24092.37331515  .00000067  00000-0  22336-4 0  9995,2 52684  53.2174  79.3837 0001511  94.6081 265.5084 15.08823842104356,6917.93,95.439,540.84,538.749,0.0
52684.0,STARLINK-4014,PAYLOAD,2024-04-02 05:37:35,15.08849714,0.000139,53.2168,75.5198,93.0687,267.0464,0.001073,0.00016835,0.0,0 STARLINK-4014,1 52684U 22053AE  24093.23443701  .00016835  00000-0  10730-2 0  9995,2 52684  53.2168  75.5198 0001390  93.0687 267.0464 15.08849714104105,6917.851,95.437,540.677,538.754,0.0
52684.0,STARLINK-4014,PAYLOAD,2024-04-02 08:48:21,15.08855139,0.0001386,53.217,74.9251,93.3627,266.7524,0.0010962,0.00017208,0.0,0 STARLINK-4014,1 52684U 22053AE  24093.36691571  .00017208  00000-0  10962-2 0  9991,2 52684  53.2170  74.9251 0001386  93.3627 266.7524 15.08855139104508,6917.834,95.437,540.658,538.74,0.0
52684.0,STARLINK-4014,PAYLOAD,2024-04-02 15:09:53,15.08860937,0.0001372,53.2168,73.7356,93.7858,266.3291,0.00095264,0.00014914,0.0,0 STARLINK-4014,1 52684U 22053AE  24093.63187264  .00014914  00000-0  95264-3 0  9990,2 52684  53.2168  73.7356 0001372  93.7858 266.3291 15.08860937104546,6917.816,95.436,540.631,538.732,0.0
52684.0,STARLINK-4014,PAYLOAD,2024-04-03 05:28:21,15.08855186,0.0001263,53.2171,71.0597,90.6711,269.4426,0.00046463,7.117e-05,0.0,0 STARLINK-4014,1 52684U 22053AE  24094.22802970  .00007117  00000-0  46463-3 0  9998,2 52684  53.2171  71.0597 0001263  90.6711 269.4426 15.08855186104253,6917.834,95.437,540.573,538.825,0.0
52684.0,STARLINK-4014,PAYLOAD,2024-04-03 15:00:40,15.08856661,0.0001538,53.2184,69.2779,102.6041,257.5124,0.00048288,7.409e-05,0.0,0 STARLINK-4014,1 52684U 22053AE  24094.62546717  .00007409  00000-0  48288-3 0  9997,2 52684  53.2184  69.2779 0001538 102.6041 257.5124 15.08856661104693,6917.829,95.437,540.758,538.631,0.0
52684.0,STARLINK-4014,PAYLOAD,2024-04-04 05:19:08,15.08848156,0.0001861,53.2192,66.6046,107.4591,252.6605,5.8102e-05,6.37e-06,0.0,0 STARLINK-4014,1 52684U 22053AE  24095.22162664  .00000637  00000-0  58102-4 0  9992,2 52684  53.2192  66.6046 0001861 107.4591 252.6605 15.08848156104401,6917.855,95.437,541.008,538.433,0.0
52684.0,STARLINK-4014,PAYLOAD,2024-04-04 14:51:26,15.08853588,0.0001571,53.2174,64.817,97.6311,262.486,0.00016092,2.275e-05,0.0,0 STARLINK-4014,1 52684U 22053AE  24095.61906187  .00002275  00000-0  16092-3 0  9992,2 52684  53.2174  64.8170 0001571  97.6311 262.4860 15.08853588104842,6917.839,95.437,540.791,538.617,0.0
52684.0,STARLINK-4014,PAYLOAD,2024-04-05 03:34:32,15.08838603,0.0001706,53.2184,62.4416,104.5003,255.6179,-4.7341e-05,-1.041e-05,0.0,0 STARLINK-4014,1 52684U 22053AE  24096.14898807 -.00001041  00000-0 -47341-4 0  9994,2 52684  53.2184  62.4416 0001706 104.5003 255.6179 15.08838603104541,6917.885,95.438,540.93,538.569,0.0
52684.0,STARLINK-4014,PAYLOAD,2024-04-05 14:42:14,15.08848121,0.0001534,53.2175,60.3536,86.9555,273.1613,0.00015108,2.118e-05,0.0,0 STARLINK-4014,1 52684U 22053AE  24096.61266347  .00002118  00000-0  15108-3 0  9993,2 52684  53.2175  60.3536 0001534  86.9555 273.1613 15.08848121104998,6917.856,95.437,540.782,538.659,0.0
52684.0,STARLINK-4014,PAYLOAD,2024-04-06 03:25:19,15.0883533,0.0001443,53.2164,57.9778,89.7843,270.3314,-7.3287e-06,-4.05e-06,0.0,0 STARLINK-4014,1 52684U 22053AE  24097.14258962 -.00000405  00000-0 -73287-5 0  9999,2 52684  53.2164  57.9778 0001443  89.7843 270.3314 15.08835330104698,6917.895,95.438,540.758,538.761,0.0
52684.0,STARLINK-4014,PAYLOAD,2024-04-06 14:33:01,15.08849143,0.000137,53.2165,55.8934,90.5811,269.5338,0.00012945,1.773e-05,0.0,0 STARLINK-4014,1 52684U 22053AE  24097.60626248  .00001773  00000-0  12945-3 0  9995,2 52684  53.2165  55.8934 0001370  90.5811 269.5338 15.08849143105148,6917.852,95.437,540.665,538.77,0.0
52684.0,STARLINK-4014,PAYLOAD,2024-04-06 20:54:33,15.0884729,0.0001634,53.2155,54.7048,87.0348,273.0831,0.00011763,1.585e-05,0.0,0 STARLINK-4014,1 52684U 22053AE  24097.87122428  .00001585  00000-0  11763-3 0  9993,2 52684  53.2155  54.7048 0001634  87.0348 273.0831 15.08847290104801,6917.858,95.437,540.853,538.593,0.0
52684.0,STARLINK-4014,PAYLOAD,2024-04-07 06:26:52,15.08842847,0.000148,53.2175,52.9181,97.9303,262.1857,0.00012674,1.73e-05,0.0,0 STARLINK-4014,1 52684U 22053AE  24098.26866781  .00001730  00000-0  12674-3 0  9998,2 52684  53.2175  52.9181 0001480  97.9303 262.1857 15.08842847104867,6917.872,95.437,540.761,538.713,0.0
52684.0,STARLINK-4014,PAYLOAD,2024-04-07 14:23:48,15.08848299,0.0001535,53.2183,51.4327,91.3864,268.7304,0.00016389,2.322e-05,0.0,0 STARLINK-4014,1 52684U 22053AE  24098.59986432  .00002322  00000-0  16389-3 0  9995,2 52684  53.2183  51.4327 0001535  91.3864 268.7304 15.08848299105297,6917.855,95.437,540.782,538.658,0.0
52684.0,STARLINK-4014,PAYLOAD,2024-04-08 06:17:40,15.08839505,0.0001693,53.2203,48.4575,107.014,253.1038,3.6785e-05,2.97e-06,0.0,0 STARLINK-4014,1 52684U 22053AE  24099.26226982  .00000297  00000-0  36785-4 0  9999,2 52684  53.2203  48.4575 0001693 107.0140 253.1038 15.08839505105010,6917.882,95.438,540.918,538.576,0.0
52684.0,STARLINK-4014,PAYLOAD,2024-04-08 23:46:54,15.08839401,0.0001603,53.2205,45.1873,106.6647,253.4521,0.00017278,2.463e-05,0.0,0 STARLINK-4014,1 52684U 22053AE  24099.99091038  .00002463  00000-0  17278-3 0  9993,2 52684  53.2205  45.1873 0001603 106.6647 253.4521 15.08839401105504,6917.882,95.438,540.856,538.638,0.0
52684.0,STARLINK-4014,PAYLOAD,2024-04-09 06:08:27,15.08843327,0.0001432,53.2193,43.9995,93.762,266.3536,7.819e-05,9.57e-06,0.0,0 STARLINK-4014,1 52684U 22053AE  24100.25586845  .00000957  00000-0  78190-4 0  9997,2 52684  53.2193  43.9995 0001432  93.7620 266.3536 15.08843327105543,6917.87,95.437,540.726,538.745,0.0
52684.0,STARLINK-4014,PAYLOAD,2024-04-10 02:48:28,15.08839112,0.0001299,53.2175,40.1333,92.4182,267.6959,8.2832e-05,1.031e-05,0.0,0 STARLINK-4014,1 52684U 22053AE  24101.11699211  .00001031  00000-0  82832-4 0  9997,2 52684  53.2175  40.1333 0001299  92.4182 267.6959 15.08839112105290,6917.883,95.438,540.647,538.849,0.0
